{
  "type": "FeatureCollection",
  "features": [
    {
      "type": "Feature",
      "properties": {
        "norad_id": 60182,
        "name": "ALOS-4 (DAICHI-4)",
        "group": "resource",
        "lat": -7.371923892183475,
        "lon": 88.77358372850271,
        "alt_km": 635.2146155663968,
        "timestamp": "2025-12-18T23:35:48.705118+00:00",
        "meta_object_name": "ALOS-4 (DAICHI-4)",
        "meta_object_id": "2024-123A",
        "meta_epoch": "2025-12-18T13:53:28.651776",
        "meta_mean_motion": 14.79470622,
        "meta_eccentricity": 0.00013805,
        "meta_inclination": 97.9224,
        "meta_ra_of_asc_node": 87.3427,
        "meta_arg_of_pericenter": 101.7265,
        "meta_mean_anomaly": 258.4102,
        "meta_ephemeris_type": 0,
        "meta_classification_type": "U",
        "meta_norad_cat_id": 60182,
        "meta_element_set_no": 999,
        "meta_rev_at_epoch": 7917,
        "meta_bstar": 0.00021979897,
        "meta_mean_motion_dot": 1.59e-05,
        "meta_mean_motion_ddot": 0,
        "tle_line1": "1 60182U 24123A   25352.57880384  .00001590  00000+0  21980-3 0  9996",
        "tle_line2": "2 60182  97.9224  87.3427 0001380 101.7265 258.4102 14.79470622 79175"
      },
      "geometry": {
        "type": "Point",
        "coordinates": [
          88.77358372850271,
          -7.371923892183475
        ]
      }
    },
    {
      "type": "Feature",
      "properties": {
        "norad_id": 60452,
        "name": "LEGION 3",
        "group": "resource",
        "lat": 2.8157248655530016,
        "lon": 93.83887157791558,
        "alt_km": 512.1985682983468,
        "timestamp": "2025-12-18T23:35:48.705128+00:00",
        "meta_object_name": "LEGION 3",
        "meta_object_id": "2024-146A",
        "meta_epoch": "2025-12-18T11:45:05.435136",
        "meta_mean_motion": 15.1582173,
        "meta_eccentricity": 0.00155276,
        "meta_inclination": 45.0024,
        "meta_ra_of_asc_node": 279.3071,
        "meta_arg_of_pericenter": 229.7713,
        "meta_mean_anomaly": 130.1807,
        "meta_ephemeris_type": 0,
        "meta_classification_type": "U",
        "meta_norad_cat_id": 60452,
        "meta_element_set_no": 999,
        "meta_rev_at_epoch": 7460,
        "meta_bstar": 0.00021704005,
        "meta_mean_motion_dot": 3.965e-05,
        "meta_mean_motion_ddot": 0,
        "tle_line1": "1 60452U 24146A   25352.48964624  .00003965  00000+0  21704-3 0  9993",
        "tle_line2": "2 60452  45.0024 279.3071 0015527 229.7713 130.1807 15.15821730 74604"
      },
      "geometry": {
        "type": "Point",
        "coordinates": [
          93.83887157791558,
          2.8157248655530016
        ]
      }
    },
    {
      "type": "Feature",
      "properties": {
        "norad_id": 60453,
        "name": "LEGION 4",
        "group": "resource",
        "lat": 4.04216160735882,
        "lon": -175.61962201911172,
        "alt_km": 523.8244250899525,
        "timestamp": "2025-12-18T23:35:48.705139+00:00",
        "meta_object_name": "LEGION 4",
        "meta_object_id": "2024-146B",
        "meta_epoch": "2025-12-18T11:45:38.190240",
        "meta_mean_motion": 15.15883204,
        "meta_eccentricity": 0.00089502,
        "meta_inclination": 45.0396,
        "meta_ra_of_asc_node": 11.0737,
        "meta_arg_of_pericenter": 341.4316,
        "meta_mean_anomaly": 18.6235,
        "meta_ephemeris_type": 0,
        "meta_classification_type": "U",
        "meta_norad_cat_id": 60453,
        "meta_element_set_no": 999,
        "meta_rev_at_epoch": 7345,
        "meta_bstar": 0.00020431086,
        "meta_mean_motion_dot": 3.717e-05,
        "meta_mean_motion_ddot": 0,
        "tle_line1": "1 60453U 24146B   25352.49002535  .00003717  00000+0  20431-3 0  9990",
        "tle_line2": "2 60453  45.0396  11.0737 0008950 341.4316  18.6235 15.15883204 73451"
      },
      "geometry": {
        "type": "Point",
        "coordinates": [
          -175.61962201911172,
          4.04216160735882
        ]
      }
    },
    {
      "type": "Feature",
      "properties": {
        "norad_id": 60989,
        "name": "SENTINEL-2C",
        "group": "resource",
        "lat": 72.82259568188229,
        "lon": -85.4343087243585,
        "alt_km": 781.111101262064,
        "timestamp": "2025-12-18T23:35:48.705150+00:00",
        "meta_object_name": "SENTINEL-2C",
        "meta_object_id": "2024-157A",
        "meta_epoch": "2025-12-18T11:21:36.537120",
        "meta_mean_motion": 14.3081982,
        "meta_eccentricity": 0.00012271,
        "meta_inclination": 98.5679,
        "meta_ra_of_asc_node": 64.8733,
        "meta_arg_of_pericenter": 96.3823,
        "meta_mean_anomaly": 263.75,
        "meta_ephemeris_type": 0,
        "meta_classification_type": "U",
        "meta_norad_cat_id": 60989,
        "meta_element_set_no": 999,
        "meta_rev_at_epoch": 6714,
        "meta_bstar": 6.3462123e-05,
        "meta_mean_motion_dot": 1.23e-06,
        "meta_mean_motion_ddot": 0,
        "tle_line1": "1 60989U 24157A   25352.47333955  .00000123  00000+0  63462-4 0  9997",
        "tle_line2": "2 60989  98.5679  64.8733 0001227  96.3823 263.7500 14.30819820 67149"
      },
      "geometry": {
        "type": "Point",
        "coordinates": [
          -85.4343087243585,
          72.82259568188229
        ]
      }
    },
    {
      "type": "Feature",
      "properties": {
        "norad_id": 61735,
        "name": "IONOSFERA-M 1",
        "group": "resource",
        "lat": -9.470555950989151,
        "lon": 41.31277213783061,
        "alt_km": 820.7344083128719,
        "timestamp": "2025-12-18T23:35:48.705160+00:00",
        "meta_object_name": "IONOSFERA-M 1",
        "meta_object_id": "2024-199A",
        "meta_epoch": "2025-12-18T14:16:11.191008",
        "meta_mean_motion": 14.22715312,
        "meta_eccentricity": 6.74e-05,
        "meta_inclination": 98.7401,
        "meta_ra_of_asc_node": 222.3978,
        "meta_arg_of_pericenter": 12.7094,
        "meta_mean_anomaly": 347.4101,
        "meta_ephemeris_type": 0,
        "meta_classification_type": "U",
        "meta_norad_cat_id": 61735,
        "meta_element_set_no": 999,
        "meta_rev_at_epoch": 10202,
        "meta_bstar": 4.3010924e-05,
        "meta_mean_motion_dot": 5.2e-07,
        "meta_mean_motion_ddot": 0,
        "tle_line1": "1 61735U 24199A   25352.59457397  .00000052  00000+0  43011-4 0  9992",
        "tle_line2": "2 61735  98.7401 222.3978 0000674  12.7094 347.4101 14.22715312102029"
      },
      "geometry": {
        "type": "Point",
        "coordinates": [
          41.31277213783061,
          -9.470555950989151
        ]
      }
    },
    {
      "type": "Feature",
      "properties": {
        "norad_id": 61736,
        "name": "IONOSFERA-M 2",
        "group": "resource",
        "lat": 11.901737409595789,
        "lon": -139.16251987408066,
        "alt_km": 817.4205327648533,
        "timestamp": "2025-12-18T23:35:48.705171+00:00",
        "meta_object_name": "IONOSFERA-M 2",
        "meta_object_id": "2024-199B",
        "meta_epoch": "2025-12-18T15:06:03.926304",
        "meta_mean_motion": 14.22717491,
        "meta_eccentricity": 0.00017693,
        "meta_inclination": 98.7406,
        "meta_ra_of_asc_node": 222.3445,
        "meta_arg_of_pericenter": 103.1583,
        "meta_mean_anomaly": 256.9793,
        "meta_ephemeris_type": 0,
        "meta_classification_type": "U",
        "meta_norad_cat_id": 61736,
        "meta_element_set_no": 999,
        "meta_rev_at_epoch": 10515,
        "meta_bstar": 4.0927175e-05,
        "meta_mean_motion_dot": 4.7e-07,
        "meta_mean_motion_ddot": 0,
        "tle_line1": "1 61736U 24199B   25352.62921211  .00000047  00000+0  40927-4 0  9995",
        "tle_line2": "2 61736  98.7406 222.3445 0001769 103.1583 256.9793 14.22717491105156"
      },
      "geometry": {
        "type": "Point",
        "coordinates": [
          -139.16251987408066,
          11.901737409595789
        ]
      }
    },
    {
      "type": "Feature",
      "properties": {
        "norad_id": 63772,
        "name": "BIOMASS",
        "group": "resource",
        "lat": 49.14288520926663,
        "lon": 7.3432572286337106,
        "alt_km": 664.0532134442483,
        "timestamp": "2025-12-18T23:35:48.705181+00:00",
        "meta_object_name": "BIOMASS",
        "meta_object_id": "2025-090A",
        "meta_epoch": "2025-12-18T11:33:05.101920",
        "meta_mean_motion": 14.67533193,
        "meta_eccentricity": 0.00010843,
        "meta_inclination": 98.07,
        "meta_ra_of_asc_node": 177.4074,
        "meta_arg_of_pericenter": 78.1914,
        "meta_mean_anomaly": 281.9412,
        "meta_ephemeris_type": 0,
        "meta_classification_type": "U",
        "meta_norad_cat_id": 63772,
        "meta_element_set_no": 999,
        "meta_rev_at_epoch": 3418,
        "meta_bstar": 0.00016087082,
        "meta_mean_motion_dot": 8.64e-06,
        "meta_mean_motion_ddot": 0,
        "tle_line1": "1 63772U 25090A   25352.48130905  .00000864  00000+0  16087-3 0  9990",
        "tle_line2": "2 63772  98.0700 177.4074 0001084  78.1914 281.9412 14.67533193 34189"
      },
      "geometry": {
        "type": "Point",
        "coordinates": [
          7.3432572286337106,
          49.14288520926663
        ]
      }
    }
  ]
}